{
  "type": "FeatureCollection",
  "features": [
    {
      "type": "Feature",
      "properties": {
        "name": "Vor 1498 See",
        "period": "Vor 1498",
        "mode": "See"
      },
      "geometry": {
        "type": "LineString",
        "coordinates": [
          [127.4, 0.79],
          [126.6, -0.5],
          [125, -1.5],
          [123.5, -2.8],
          [121, -4],
          [118, -5],
          [114, -5.8],
          [110, -6.2],
          [106.5, -5.9],
          [104, -3],
          [102.25, 2.19],
          [99.5, 5.5],
          [96.5, 7.5],
          [93, 8.5],
          [89, 8.8],
          [85, 8.5],
          [81.5, 8],
          [78.5, 9],
          [75.78, 11.25]
        ]
      }
    },
    {
      "type": "Feature",
      "properties": {
        "name": "Vor 1498 See",
        "period": "Vor 1498",
        "mode": "See"
      },
      "geometry": {
        "type": "LineString",
        "coordinates": [
          [75.78, 11.25],
          [72.5, 10.5],
          [69.5, 11],
          [66.5, 12],
          [63, 12.5],
          [59, 12.8],
          [55, 12.8],
          [50, 12.8],
          [45.03, 12.78]
        ]
      }
    },
    {
      "type": "Feature",
      "properties": {
        "name": "Vor 1498 See",
        "period": "Vor 1498",
        "mode": "See"
      },
      "geometry": {
        "type": "LineString",
        "coordinates": [
          [45.03, 12.78],
          [43.4, 12.6],
          [42.8, 13.8],
          [42, 15.5],
          [41.2, 17.5],
          [40.2, 19.5],
          [39.17, 21.54],
          [37.2, 24],
          [35, 26.5],
          [32.55, 29.97]
        ]
      }
    },
    {
      "type": "Feature",
      "properties": {
        "name": "Vor 1498 Karawane",
        "period": "Vor 1498",
        "mode": "Karawane"
      },
      "geometry": {
        "type": "LineString",
        "coordinates": [
          [32.55, 29.97],
          [32.15, 30],
          [31.7, 30],
          [31.24, 30.04]
        ]
      }
    },
    {
      "type": "Feature",
      "properties": {
        "name": "Vor 1498 Karawane",
        "period": "Vor 1498",
        "mode": "Karawane"
      },
      "geometry": {
        "type": "LineString",
        "coordinates": [
          [31.24, 30.04],
          [30.8, 30.4],
          [30.3, 30.8],
          [29.92, 31.2]
        ]
      }
    },
    {
      "type": "Feature",
      "properties": {
        "name": "Vor 1498 See",
        "period": "Vor 1498",
        "mode": "See"
      },
      "geometry": {
        "type": "LineString",
        "coordinates": [
          [29.92, 31.2],
          [27, 32.5],
          [24, 33.8],
          [21, 35.5],
          [18.5, 37.5],
          [16.8, 40],
          [14.5, 42.5],
          [12.33, 45.44]
        ]
      }
    },
    {
      "type": "Feature",
      "properties": {
        "name": "Vor 1498 See",
        "period": "Vor 1498",
        "mode": "See"
      },
      "geometry": {
        "type": "LineString",
        "coordinates": [
          [12.33, 45.44],
          [12, 44.8],
          [11, 44],
          [9, 43.8],
          [7, 44],
          [5, 45],
          [2.5, 47.5],
          [1.5, 49.5],
          [2.5, 50.6],
          [4.4, 51.22]
        ]
      }
    },
    {
      "type": "Feature",
      "properties": {
        "name": "Nach 1498 See",
        "period": "Nach 1498",
        "mode": "See"
      },
      "geometry": {
        "type": "LineString",
        "coordinates": [
          [127.4, 0.79],
          [126.4, 0.1],
          [124.8, -1],
          [123.2, -2.2],
          [121, -3.6],
          [118.5, -4.8],
          [115.5, -5.8],
          [112, -6.4],
          [109, -6.5],
          [106.5, -6],
          [104.8, -4.5],
          [103.5, -2],
          [102.25, 2.19]
        ]
      }
    },
    {
      "type": "Feature",
      "properties": {
        "name": "Nach 1498 See",
        "period": "Nach 1498",
        "mode": "See"
      },
      "geometry": {
        "type": "LineString",
        "coordinates": [
          [102.25, 2.19],
          [100, 5.5],
          [97, 7.5],
          [94, 8.8],
          [90, 8.8],
          [86, 8],
          [83, 8],
          [80, 9.5],
          [77.5, 12.5],
          [75.78, 11.25]
        ]
      }
    },
    {
      "type": "Feature",
      "properties": {
        "name": "Nach 1498 See",
        "period": "Nach 1498",
        "mode": "See"
      },
      "geometry": {
        "type": "LineString",
        "coordinates": [
          [75.78, 11.25],
          [74.8, 12.2],
          [74.2, 13.2],
          [73.83, 15.5]
        ]
      }
    },
    {
      "type": "Feature",
      "properties": {
        "name": "Nach 1498 See",
        "period": "Nach 1498",
        "mode": "See"
      },
      "geometry": {
        "type": "LineString",
        "coordinates": [
          [73.83, 15.5],
          [71.5, 14.5],
          [68, 13],
          [64, 12],
          [60, 11],
          [56, 10.8],
          [52, 7],
          [48, 1.5],
          [44.5, -6],
          [41.8, -11],
          [40.73, -15.03]
        ]
      }
    },
    {
      "type": "Feature",
      "properties": {
        "name": "Nach 1498 See",
        "period": "Nach 1498",
        "mode": "See"
      },
      "geometry": {
        "type": "LineString",
        "coordinates": [
          [40.73, -15.03],
          [40.5, -12],
          [40.2, -8],
          [39.9, -5.5],
          [39.67, -4.04]
        ]
      }
    },
    {
      "type": "Feature",
      "properties": {
        "name": "Nach 1498 See",
        "period": "Nach 1498",
        "mode": "See"
      },
      "geometry": {
        "type": "LineString",
        "coordinates": [
          [39.67, -4.04],
          [39.9, -3.7],
          [40.12, -3.22]
        ]
      }
    },
    {
      "type": "Feature",
      "properties": {
        "name": "Nach 1498 See",
        "period": "Nach 1498",
        "mode": "See"
      },
      "geometry": {
        "type": "LineString",
        "coordinates": [
          [40.12, -3.22],
          [44, 2.5],
          [49, 7.5],
          [54, 12],
          [59, 14.5],
          [64, 16],
          [69, 15.8],
          [73, 13.8],
          [75.78, 11.25]
        ]
      }
    },
    {
      "type": "Feature",
      "properties": {
        "name": "Nach 1498 See",
        "period": "Nach 1498",
        "mode": "See"
      },
      "geometry": {
        "type": "LineString",
        "coordinates": [
          [40.73, -15.03],
          [38, -20],
          [34, -25],
          [29, -30],
          [24, -33.5],
          [20, -34.8],
          [18, -34.8]
        ]
      }
    },
    {
      "type": "Feature",
      "properties": {
        "name": "Nach 1498 See",
        "period": "Nach 1498",
        "mode": "See"
      },
      "geometry": {
        "type": "LineString",
        "coordinates": [
          [18, -34.8],
          [14, -32],
          [10, -28],
          [5, -20],
          [0, -10],
          [-5, 0],
          [-10, 8],
          [-17, 15],
          [-18, 22],
          [-14, 30],
          [-9.14, 38.72]
        ]
      }
    },
    {
      "type": "Feature",
      "properties": {
        "name": "Nach 1498 See",
        "period": "Nach 1498",
        "mode": "See"
      },
      "geometry": {
        "type": "LineString",
        "coordinates": [
          [-9.14, 38.72],
          [-9.5, 41.5],
          [-8, 44],
          [-5, 46.5],
          [-2, 49],
          [1.5, 50.4],
          [4.4, 51.22]
        ]
      }
    }
  ]
}
