{
  "type": "FeatureCollection",
  "features": [
    {
      "type": "Feature",
      "properties": {
        "name": "Vor 1498 See",
        "period": "Vor 1498",
        "mode": "See"
      },
      "geometry": {
        "type": "LineString",
        "coordinates": [
          [127.4, 0.79],
          [126.2, -1.5],
          [123.5, -3],
          [119.5, -4.8],
          [114, -5.5],
          [109.5, -6],
          [105, -5.8],
          [103, -2],
          [102.25, 2.19],
          [98, 6],
          [94, 8.5],
          [89, 9],
          [84, 8],
          [80, 8],
          [77.5, 9.5],
          [75.78, 11.25]
        ]
      }
    },
    {
      "type": "Feature",
      "properties": {
        "name": "Vor 1498 See",
        "period": "Vor 1498",
        "mode": "See"
      },
      "geometry": {
        "type": "LineString",
        "coordinates": [
          [75.78, 11.25],
          [72, 10.5],
          [66, 12],
          [60, 13],
          [54, 12.5],
          [49, 12.5],
          [45.03, 12.78]
        ]
      }
    },
    {
      "type": "Feature",
      "properties": {
        "name": "Vor 1498 See",
        "period": "Vor 1498",
        "mode": "See"
      },
      "geometry": {
        "type": "LineString",
        "coordinates": [
          [45.03, 12.78],
          [43.3, 12.6],
          [42, 15.5],
          [40.5, 19],
          [39.17, 21.54],
          [36, 24.5],
          [34, 27],
          [32.55, 29.97]
        ]
      }
    },
    {
      "type": "Feature",
      "properties": {
        "name": "Vor 1498 Karawane",
        "period": "Vor 1498",
        "mode": "Karawane"
      },
      "geometry": {
        "type": "LineString",
        "coordinates": [
          [32.55, 29.97],
          [32, 30],
          [31.6, 30],
          [31.24, 30.04]
        ]
      }
    },
    {
      "type": "Feature",
      "properties": {
        "name": "Vor 1498 Karawane",
        "period": "Vor 1498",
        "mode": "Karawane"
      },
      "geometry": {
        "type": "LineString",
        "coordinates": [
          [31.24, 30.04],
          [30.8, 30.4],
          [30.2, 30.8],
          [29.92, 31.2]
        ]
      }
    },
    {
      "type": "Feature",
      "properties": {
        "name": "Vor 1498 See",
        "period": "Vor 1498",
        "mode": "See"
      },
      "geometry": {
        "type": "LineString",
        "coordinates": [
          [29.92, 31.2],
          [25, 33.5],
          [21, 36.5],
          [18, 39],
          [16, 41.8],
          [13.5, 43.5],
          [12.33, 45.44]
        ]
      }
    },
    {
      "type": "Feature",
      "properties": {
        "name": "Vor 1498 See",
        "period": "Vor 1498",
        "mode": "See"
      },
      "geometry": {
        "type": "LineString",
        "coordinates": [
          [12.33, 45.44],
          [11.5, 44.5],
          [7, 44],
          [4, 46],
          [1, 49],
          [2.5, 50.5],
          [4.4, 51.22]
        ]
      }
    },
    {
      "type": "Feature",
      "properties": {
        "name": "Nach 1498 See",
        "period": "Nach 1498",
        "mode": "See"
      },
      "geometry": {
        "type": "LineString",
        "coordinates": [
          [127.4, 0.79],
          [126.2, -1.5],
          [123.5, -3],
          [119.5, -4.8],
          [114, -5.5],
          [109.5, -6],
          [105, -5.8],
          [103, -2],
          [102.25, 2.19],
          [98, 6],
          [94, 8.5],
          [89, 9],
          [84, 8],
          [79.5, 10],
          [76.5, 13],
          [73.83, 15.5]
        ]
      }
    },
    {
      "type": "Feature",
      "properties": {
        "name": "Nach 1498 See",
        "period": "Nach 1498",
        "mode": "See"
      },
      "geometry": {
        "type": "LineString",
        "coordinates": [
          [73.83, 15.5],
          [69, 14],
          [63, 13],
          [58, 11.5],
          [54, 12.5],
          [48, 8],
          [43, 2],
          [40.67, -15.03]
        ]
      }
    },
    {
      "type": "Feature",
      "properties": {
        "name": "Nach 1498 See",
        "period": "Nach 1498",
        "mode": "See"
      },
      "geometry": {
        "type": "LineString",
        "coordinates": [
          [40.67, -15.03],
          [36, -22],
          [29, -30],
          [22, -34],
          [18, -34.8],
          [10, -26],
          [0, -10],
          [-10, 5],
          [-17, 15],
          [-9.14, 38.72]
        ]
      }
    },
    {
      "type": "Feature",
      "properties": {
        "name": "Nach 1498 See",
        "period": "Nach 1498",
        "mode": "See"
      },
      "geometry": {
        "type": "LineString",
        "coordinates": [
          [-9.14, 38.72],
          [-9.5, 42.5],
          [-6, 46],
          [-2, 49],
          [1.5, 50.5],
          [4.4, 51.22]
        ]
      }
    }
  ]
}
